P/2015 T3 (PANSTARRS),e,13.0937,120.5019,178.6330,4.326181,0.1095335,0.50818108,359.9227,12/21.0/2014,2000,g 14.0,4.0
# From MPC102953
C/2015 T4 (PANSTARRS),e,87.9633,251.8000,270.0568,80.48721,0.0013649,0.97146310,0.0000,06/17.5677/2016,2000,g 11.0,4.0
# From MPC102097
C/2015 T5 (Sheppard-Tholen),e,11.0491,311.0807,61.7930,28.05570,0.0066324,0.66736253,9.6308,01/13.0/2020,2000,g  7.5,4.0
# From MPC102953
P/2015 TO19 (Lemmon-PANSTARRS),e,6.4993,321.6426,89.2086,4.557849,0.1012894,0.35773714,142.6633,01/13.0/2020,2000,g 14.0,4.0
# From MPC110080
P/2015 TP200 (LINEAR),e,8.7730,6.9802,82.7323,7.283475,0.0501414,0.53493074,58.7888,01/13.0/2020,2000,g 11.0,4.0
# From MPC101097
C/2015 TQ209 (LINEAR),e,11.3094,223.4209,282.1175,710.3290,0.0000521,0.99800778,0.0000,08/26.4557/2016,2000,g 10.5,4.0
# From MPC115881
C/2015 V1 (PANSTARRS),e,139.2234,197.1875,179.6185,5044,0.0000028,0.99915389,0.0000,12/17.3947/2017,2000,g  6.5,4.0
# From MPC112390
C/2015 V2 (Johnson),h,06/12.2141/2017,49.8733,69.8557,164.9732,1.001832,1.640686,2000,5.0,4.0
# From MPC102953
C/2015 V3 (PANSTARRS),e,86.2396,2.2652,0.7098,627.6657,0.0000627,0.99325844,0.0000,11/24.0087/2015,2000,g  9.0,4.0
# From MPC104791
C/2015 V4 (PANSTARRS),e,60.7617,179.9118,307.0525,18.50961,0.0123768,0.70481551,15.2495,01/13.0/2020,2000,g  8.5,4.0
# From MPC115881
C/2015 VL62 (Lemmon-Yeung-PANSTARRS),h,08/28.1043/2017,165.8152,95.0897,128.7237,1.001176,2.713692,2000,8.0,4.0
# From MPC102098
C/2015 WZ (PANSTARRS),e,134.5623,40.1376,66.6563,146.4851,0.0005559,0.99059763,0.0000,04/14.0941/2016,2000,g 15.0,4.0
# From MPC109142
C/2015 W1 (Gibbs),h,05/15.5096/2016,87.3730,114.3160,48.1978,1.000159,2.241062,2000,13.0,4.0
# From MPC101098
P/2015 W2 (Catalina),e,11.6069,294.2520,117.5724,7.301870,0.0499520,0.63332324,78.2208,01/13.0/2020,2000,g 13.0,4.0
# From MPC101098
P/2015 X1 (PANSTARRS),e,12.1519,161.7753,218.9931,3.630507,0.1424798,0.41892493,221.9890,01/13.0/2020,2000,g 16.0,4.0
# From MPC118840
C/2015 XY1 (Lemmon),h,04/28.7370/2018,148.8556,281.6254,196.2862,1.003965,7.926195,2000,5.5,4.0
# From MPC100281
C/2015 X2 (Catalina),e,72.1013,101.1009,42.3702,15.83590,0.0156401,0.87836367,23.2389,01/13.0/2020,2000,g 16.0,4.0
# From MPC 97498
P/2015 X3 (PANSTARRS),e,24.3824,77.3337,306.6705,5.012233,0.0878329,0.43813940,142.2791,01/13.0/2020,2000,g 15.0,4.0
# From MPC109142
C/2015 X4 (Elenin),e,29.5008,262.6214,176.2744,17.97061,0.0129378,0.81119005,19.8278,01/13.0/2020,2000,g 10.0,4.0
# From MPC118840
C/2015 X5 (PANSTARRS),h,12/30.2588/2017,124.3077,122.3414,27.7087,1.002957,6.799844,2000,7.5,4.0
# From MPC115881
P/2015 X6 (PANSTARRS),e,4.5648,106.9472,329.9002,2.752408,0.2158414,0.17230524,299.9437,01/13.0/2020,2000,g 16.0,4.0
# From MPC109143
C/2015 X7 (ATLAS),h,07/29.5983/2016,57.5628,139.9080,348.4634,1.000317,3.685240,2000,9.0,4.0
# From MPC107048
C/2015 X8 (NEOWISE),e,155.2159,191.1489,20.4299,19.76541,0.0112162,0.93996963,17.2942,01/13.0/2020,2000,g 16.0,4.0
# From MPC109143
C/2015 Y1 (LINEAR),e,71.1759,135.8112,24.6961,256.7308,0.0002396,0.99019834,0.0000,05/14.3700/2016,2000,g 12.0,4.0
# From MPC105543
C/2015 YG1 (NEOWISE),e,57.2734,350.5212,102.5284,17.01350,0.0140447,0.87854103,22.0252,01/13.0/2020,2000,g 13.0,4.0
# From MPC118840
C/2016 A1 (PANSTARRS),h,11/23.0692/2017,121.2044,128.1996,10.2939,1.002028,5.325951,2000,6.0,4.0
# From MPC100282
P/2016 A2 (Christensen),e,26.4064,291.6156,141.6533,4.748376,0.0952547,0.27149266,158.6383,01/13.0/2020,2000,g 11.5,4.0
# From MPC115881
P/2016 A3 (PANSTARRS),e,8.5138,187.3495,340.7126,7.886799,0.0444993,0.38835294,44.0036,01/13.0/2020,2000,g 10.0,4.0
# From MPC109143
C/2016 A5 (PANSTARRS),e,40.2397,136.1656,321.5488,673.5474,0.0000564,0.99562769,0.0000,06/26.8468/2015,2000,g 13.5,4.0
# From MPC109143
C/2016 A6 (PANSTARRS),e,120.9356,300.3652,141.0798,207.4298,0.0003299,0.98839547,0.0000,11/06.2901/2015,2000,g 15.0,4.0
# From MPC102098
P/2016 A7 (PANSTARRS),e,16.6303,221.4742,352.6260,5.030089,0.0873656,0.56577756,123.8503,01/13.0/2020,2000,g 16.0,4.0
# From MPC106345
C/2016 A8 (LINEAR),e,148.2431,111.3376,130.3558,34.28122,0.0049104,0.94502367,6.0464,01/13.0/2020,2000,g 12.0,4.0
# From MPC107048
C/2016 B1 (NEOWISE),e,50.4692,231.9710,8.6615,439.6486,0.0001069,0.99269402,0.0000,12/04.8349/2016,2000,g  9.5,4.0
# From MPC109143
P/2016 BA14 (PANSTARRS),e,18.8983,180.5377,351.9114,3.023979,0.1874287,0.66530202,262.2906,01/13.0/2020,2000,g 21.0,4.0
# From MPC110494
C/2016 C1 (PANSTARRS),h,02/19.3644/2016,56.2111,181.7972,328.7840,1.002725,8.467123,2000,5.5,4.0
# From MPC101098
C/2016 C2 (NEOWISE),e,38.0982,24.4211,214.5268,65.86641,0.0018438,0.97623730,0.0000,04/19.6308/2016,2000,g 16.0,4.0
# From MPC110494
C/2016 E1 (PANSTARRS),h,06/03.9077/2017,131.8922,233.0533,47.4513,1.005311,8.179624,2000,6.5,4.0
# From MPC 99821
C/2016 E2 (Kowalski),e,135.9158,186.8141,321.9094,139.4001,0.0005988,0.99227856,0.0000,02/06.7005/2016,2000,g 20.0,4.0
# From MPC102098
P/2016 G1 (PANSTARRS),e,10.9691,204.0595,111.2989,2.582317,0.2375142,0.21088257,256.7999,01/13.0/2020,2000,g 14.0,4.0
# From MPEC 2017-D91
P/2016 J1-A (PANSTARRS),e,14.3249,199.8346,46.8461,3.174336,0.1742708,0.22822480,225.9643,01/13.0/2020,2000,g 16.5,4.0
# From MPEC 2017-A77
P/2016 J1-B (PANSTARRS),e,14.3276,199.8394,46.7373,3.173966,0.1743013,0.22807602,226.0785,01/13.0/2020,2000,g 17.0,4.0
# From MPC101099
C/2016 J2 (Denneau),e,130.3405,186.3293,318.6159,623.2831,0.0000633,0.99755938,0.0000,04/12.0346/2016,2000,g 17.0,4.0
# From MPC102099
C/2016 KA (Catalina),e,104.6758,317.5125,63.1828,4833,0.0000029,0.99888159,0.0000,02/02.0445/2016,2000,g  8.5,4.0
# From MPC104792
C/2016 K1 (LINEAR),e,90.9064,325.6368,18.2665,14099,0.0000006,0.99983735,0.0000,07/13.2661/2016,2000,g 13.0,4.0
# From MPC118840
C/2016 M1 (PANSTARRS),e,91.0005,92.2029,209.8600,3167,0.0000055,0.99930168,0.0000,08/10.2501/2018,2000,g  5.0,4.0
# From MPC115881
C/2016 N4 (MASTER),e,72.5833,354.0065,55.9415,2400,0.0000084,0.99866717,0.0000,09/16.4642/2017,2000,g  8.5,4.0
# From MPC118092
C/2016 N6 (PANSTARRS),e,105.8403,298.9856,162.7790,1906,0.0000118,0.99860040,0.0000,07/18.1426/2018,2000,g  7.0,4.0
# From MPC102099
P/2016 P1 (PANSTARRS),e,24.4532,319.5657,270.0341,3.195109,0.1725741,0.28940750,271.2927,01/13.0/2020,2000,g 15.0,4.0
# From MPC102099
C/2016 P4 (PANSTARRS),e,29.8820,320.7441,356.1314,388.1112,0.0001289,0.98481964,0.0000,10/17.7241/2016,2000,g 10.5,4.0
# From MPC118093
C/2016 Q2 (PANSTARRS),e,109.3906,322.3011,84.4812,11666,0.0000008,0.99939283,0.0000,05/11.3110/2021,2000,g  6.0,4.0
# From MPC102955
C/2016 Q4 (Kowalski),e,7.2577,271.2845,99.3892,16.88327,0.0142075,0.58032904,10.1792,01/13.0/2020,2000,g  7.0,4.0
# From MPC117069
C/2016 R2 (PANSTARRS),e,58.2248,80.5694,33.1911,589.5842,0.0000688,0.99558497,0.0000,05/09.4410/2018,2000,g  7.0,4.0
# From MPC102099
C/2016 R3 (Borisov),e,53.0443,78.6442,118.1861,200.3213,0.0003476,0.99774892,0.0000,10/10.6053/2016,2000,g 18.0,4.0
# From MPC109144
P/2016 R4 (Gibbs),e,10.8671,168.2919,173.9922,5.331822,0.0800554,0.47583192,101.7534,01/13.0/2020,2000,g 12.5,4.0
# From MPC105543
P/2016 S1 (PANSTARRS),e,94.6476,227.5165,273.2673,8.280640,0.0413626,0.71027769,42.7093,01/13.0/2020,2000,g 12.0,4.0
# From MPC105238
C/2016 T1 (Matheny),e,129.8456,56.2683,137.3772,123.1640,0.0007211,0.98130606,0.0000,02/01.3019/2017,2000,g 14.5,4.0
# From MPC107685
C/2016 T2 (Matheny),e,81.3559,339.1396,92.2577,99.19064,0.0009977,0.98077101,0.0000,12/28.9797/2016,2000,g 14.5,4.0
# From MPC110082
C/2016 T3 (PANSTARRS),e,22.6772,271.7421,194.6915,135.0442,0.0006280,0.98037161,0.0000,09/06.6916/2017,2000,g 10.5,4.0
# From MPC103847
C/2016 U1 (NEOWISE),h,01/14.0335/2017,46.4092,61.4495,162.8286,1.000392,0.321344,2000,17.0,4.0
# From MPC106345
C/2016 VZ18 (PANSTARRS),e,24.0087,98.9249,36.4021,173.4393,0.0004315,0.99473805,0.0000,03/06.5589/2017,2000,g 19.5,4.0
# From MPC106345
P/2016 WM48 (Lemmon),e,117.4237,59.9018,36.0971,8.173062,0.0421820,0.78421365,44.3971,01/13.0/2020,2000,g 15.0,4.0
# From MPC118840
C/2016 X1 (Lemmon),e,26.4549,256.4235,224.5346,1476,0.0000174,0.99487600,0.0000,04/29.3357/2019,2000,g  6.0,4.0
# From MPC108594
C/2017 A1 (PANSTARRS),e,49.7942,121.0406,2.0719,77.60162,0.0014418,0.97046084,0.0000,05/16.6114/2017,2000,g 13.0,4.0
# From MPC108594
C/2017 A3 (Elenin),e,98.5372,97.9077,304.0624,43.49551,0.0034359,0.91146442,3.7014,01/13.0/2020,2000,g  9.5,4.0
# From MPC114598
C/2017 AB5 (PANSTARRS),e,32.4333,42.6662,78.3649,3084,0.0000058,0.99701186,0.0000,02/16.6469/2018,2000,g  5.5,4.0
# From MPC118840
C/2017 B3 (LINEAR),h,02/02.6157/2019,54.1770,2.1788,284.7724,1.001988,3.921590,2000,6.0,4.0
# From MPC103847
P/2017 B4 (PANSTARRS),e,20.0584,121.4578,11.0197,4.410520,0.1064068,0.36495152,359.9130,01/05.0/2017,2000,g 14.5,4.0
# From MPC104793
C/2017 C1 (NEOWISE),e,65.7408,357.4814,110.1379,20.62938,0.0105190,0.92723109,11.4603,01/13.0/2020,2000,g 18.0,4.0
# From MPC107685
C/2017 C2 (PANSTARRS),e,118.5896,249.8147,138.6721,97.60215,0.0010222,0.97514430,0.0000,01/21.6178/2017,2000,g 14.0,4.0
# From MPC104793
P/2017 D1 (Fuls),e,20.7619,82.1763,8.1126,4.829355,0.0928689,0.43699784,120.3293,01/13.0/2020,2000,g 14.0,4.0
# From MPC112391
C/2017 D2 (Barros),e,31.2565,330.9895,334.4367,2721,0.0000069,0.99908582,0.0000,07/14.7798/2017,2000,g 11.0,4.0
# From MPC114598
C/2017 D3 (ATLAS),h,04/27.1805/2017,125.5746,186.6432,340.8451,1.001902,4.973896,2000,8.0,4.0
# From MPC110495
P/2017 D4 (PANSTARRS),e,10.5301,264.9373,212.3298,7.570955,0.0473127,0.62889997,57.8867,01/13.0/2020,2000,g 13.0,4.0
# From MPC104794
C/2017 D5 (PANSTARRS),e,131.0596,92.7362,287.8013,114.9802,0.0007994,0.98117941,0.0000,01/09.2616/2017,2000,g 16.0,4.0
# From MPC106346
C/2017 E1 (Borisov),h,04/10.4390/2017,14.5640,142.6220,152.5988,1.002951,0.900535,2000,14.0,4.0
# From MPC109144
C/2017 E2 (Tsuchinshan),e,79.0321,11.5713,89.3924,21.54923,0.0098527,0.89087670,13.2165,01/13.0/2020,2000,g 11.5,4.0
# From MPC115882
C/2017 E3 (PANSTARRS),h,06/08.2064/2017,70.6237,220.7273,334.5119,1.007189,5.936423,2000,6.5,4.0
